LANDSAT 9               
1 49260U 21088A   23250.56607784  .00000494  00000+0  11978-3 0  9990
2 49260  98.2236 319.4488 0001444  96.8481 263.2881 14.57099244103390
